     2.11           N: GPS NAV DATA                         RINEX VERSION / TYPE
teqc  2019Feb25                         20221121 12:26:05UTCPGM / RUN BY / DATE
OSX ker:10.11.6|Core i5|gcc 4.3 -m64|OSX ker:10.10+|=+      COMMENT
    4.6566D-09  1.4901D-08 -5.9605D-08 -1.1921D-07          ION ALPHA
    7.7824D+04  4.9152D+04 -6.5536D+04 -2.6214D+05          ION BETA
   -4.656612873077D-09-1.953992523340D-14   319488     1544 DELTA-UTC: A0,A1,T,W
                                                            END OF HEADER
 3 09  8 11  0  0  0.0 4.320400767028D-04 5.115907697473D-12 0.000000000000D+00
    5.200000000000D+01-5.659375000000D+01 5.327364763269D-09 2.615958682939D+00
   -2.989545464516D-06 1.222382194828D-02 1.025013625622D-05 5.153648994446D+03
    1.728000000000D+05 3.166496753693D-08-2.936570087337D+00-1.937150955200D-07
    9.268663646873D-01 1.632500000000D+02 9.241995776735D-01-8.134981711784D-09
   -2.750114553310D-10 1.000000000000D+00 1.544000000000D+03 0.000000000000D+00
    2.000000000000D+00 0.000000000000D+00-4.190951585770D-09 5.200000000000D+01
    1.656180000000D+05 4.000000000000D+00
19 09  8 11  0  0  0.0 1.564668491483D-05-1.477928890381D-12 0.000000000000D+00
    1.080000000000D+02-2.715625000000D+01 4.626264131042D-09-2.951267927264D+00
   -1.281499862671D-06 5.789110786282D-03 1.146271824837D-05 5.153643646240D+03
    1.728000000000D+05-8.940696716309D-08-2.747249739122D+00-5.587935447693D-09
    9.578497583100D-01 1.563125000000D+02-2.964369669438D-01-7.856755836845D-09
   -1.903650723265D-10 1.000000000000D+00 1.544000000000D+03 0.000000000000D+00
    2.800000000000D+00 0.000000000000D+00-1.443549990654D-08 1.080000000000D+02
    1.656180000000D+05 4.000000000000D+00
11 09  8 11  0  0  0.0-1.453422009945D-05-1.705302565824D-12 0.000000000000D+00
    6.100000000000D+01 6.525000000000D+01 6.283476017712D-09 1.057546888101D+00
    3.699213266373D-06 9.616142837331D-03 1.014582812786D-05 5.153701492310D+03
    1.728000000000D+05-2.793967723846D-08-1.992066976854D+00 1.452863216400D-07
    8.890271078904D-01 1.443125000000D+02 7.124988532943D-01-9.015018368843D-09
    2.142946405177D-11 1.000000000000D+00 1.544000000000D+03 0.000000000000D+00
    2.000000000000D+00 0.000000000000D+00-1.164153218269D-08 6.100000000000D+01
    1.656180000000D+05 4.000000000000D+00
28 09  8 11  0  0  0.0-2.617109566927D-05-1.136868377216D-13 0.000000000000D+00
    4.000000000000D+01-3.321875000000D+01 4.662694219930D-09-1.782517311127D+00
   -1.566484570503D-06 1.500292273704D-02 4.354864358902D-06 5.153647153854D+03
    1.728000000000D+05 2.533197402954D-07 2.446027205800D+00 5.774199962616D-08
    9.674000605756D-01 2.917187500000D+02-2.019829370115D+00-8.061407218540D-09
    1.717928701483D-10 1.000000000000D+00 1.544000000000D+03 0.000000000000D+00
    2.000000000000D+00 0.000000000000D+00-1.071020960808D-08 4.000000000000D+01
    1.656180000000D+05 4.000000000000D+00
22 09  8 11  0  0  0.0 1.936019398272D-04-7.958078640513D-13 0.000000000000D+00
    3.800000000000D+01-7.750000000000D+00 5.236646698783D-09-2.019565363141D+00
   -4.321336746216D-07 5.267710657790D-03 3.483146429062D-06 5.153654869080D+03
    1.728000000000D+05 9.685754776001D-08-6.930510193054D-01-6.519258022308D-08
    9.388715619862D-01 3.034375000000D+02-1.898095304660D+00-8.528569534868D-09
   -3.075128091428D-10 1.000000000000D+00 1.544000000000D+03 0.000000000000D+00
    2.000000000000D+00 0.000000000000D+00-1.769512891769D-08 3.800000000000D+01
    1.656180000000D+05 4.000000000000D+00
18 09  8 11  0  0  0.0 4.133675247431D-06 2.955857780762D-12 0.000000000000D+00
    8.800000000000D+01-7.531250000000D+00 5.284862992899D-09-9.980428605369D-01
   -4.339963197708D-07 1.081961626187D-02 3.354623913765D-06 5.153612384796D+03
    1.728000000000D+05 2.402812242508D-07-6.985792038622D-01 1.192092895508D-07
    9.411997727027D-01 3.056562500000D+02-2.395027968060D+00-8.679290098699D-09
   -3.375140588153D-10 1.000000000000D+00 1.544000000000D+03 0.000000000000D+00
    2.000000000000D+00 0.000000000000D+00-1.071020960808D-08 8.800000000000D+01
    1.656180000000D+05 4.000000000000D+00
15 09  8 11  0  0  0.0-3.135907463729D-04-1.932676241267D-12 0.000000000000D+00
    7.500000000000D+01-3.862500000000D+01 4.348752571572D-09-2.630577816411D+00
   -2.000480890274D-06 1.552270608954D-03 9.041279554367D-06 5.153648536682D+03
    1.728000000000D+05 1.862645149231D-09 3.052543940651D-01 4.470348358154D-08
    9.562750016065D-01 2.030937500000D+02-5.030360190693D-01-8.035334703944D-09
   -2.167947446570D-10 1.000000000000D+00 1.544000000000D+03 0.000000000000D+00
    2.000000000000D+00 0.000000000000D+00-9.778887033463D-09 7.500000000000D+01
    1.656180000000D+05 4.000000000000D+00
27 09  8 11  0  0  0.0 7.320428267121D-05 3.296918293927D-12 0.000000000000D+00
    1.400000000000D+01 4.353125000000D+01 3.983737367223D-09-2.689588760122D+00
    2.026557922363D-06 2.129685448017D-02 7.914379239082D-06 5.153756219864D+03
    1.728000000000D+05 2.365559339523D-07 1.310220564151D+00 8.940696716309D-08
    9.750617151200D-01 2.268437500000D+02-1.560762623731D+00-7.511741465612D-09
    5.328793394206D-10 1.000000000000D+00 1.544000000000D+03 0.000000000000D+00
    2.000000000000D+00 0.000000000000D+00-4.190951585770D-09 1.400000000000D+01
    1.660080000000D+05 4.000000000000D+00
26 09  8 11  0  0  0.0 6.458396092057D-05-2.273736754432D-13 0.000000000000D+00
    4.700000000000D+01-3.837500000000D+01 3.538718830415D-09 8.132961033329D-01
   -1.819804310799D-06 2.021012129262D-02 1.033395528793D-05 5.154916744232D+03
    1.728000000000D+05-2.868473529816D-07 3.775081637703D-01-5.587935447693D-09
    9.926978230832D-01 2.046875000000D+02 1.030140273592D+00-7.832111953186D-09
   -4.243033882249D-10 1.000000000000D+00 1.544000000000D+03 0.000000000000D+00
    2.000000000000D+00 0.000000000000D+00-6.519258022308D-09 4.700000000000D+01
    1.665180000000D+05 4.000000000000D+00
17 09  8 11  0  0  0.0 7.646484300494D-05 2.728484105319D-12 0.000000000000D+00
    1.100000000000D+01-3.815625000000D+01 4.590548357622D-09-2.324179989483D+00
   -1.933425664902D-06 4.609646974131D-03 1.049041748047D-05 5.153722431183D+03
    1.728000000000D+05 4.656612873077D-08-2.803061632094D+00-1.229345798492D-07
    9.601749276198D-01 1.758125000000D+02-2.636804907154D+00-7.949259690002D-09
   -1.778645516297D-10 1.000000000000D+00 1.544000000000D+03 0.000000000000D+00
    2.000000000000D+00 0.000000000000D+00-1.024454832077D-08 1.100000000000D+01
    1.669980000000D+05 4.000000000000D+00
 9 09  8 11  0  0  0.0 7.130997255445D-05 2.046363078989D-12 0.000000000000D+00
    3.100000000000D+01 3.431250000000D+01 4.132314984649D-09 2.764344968235D-01
    1.622363924980D-06 2.075693139341D-02 8.441507816315D-06 5.153628908157D+03
    1.728000000000D+05-3.706663846970D-07 1.334464261999D+00-1.005828380585D-07
    9.770030790941D-01 2.297500000000D+02 1.502877726101D+00-8.226056934004D-09
    3.653723620826D-10 1.000000000000D+00 1.544000000000D+03 0.000000000000D+00
    2.000000000000D+00 0.000000000000D+00-5.587935447693D-09 3.100000000000D+01
    1.681680000000D+05 4.000000000000D+00
32 09  8 11  0  0  0.0 2.171392552555D-04-6.593836587854D-12 0.000000000000D+00
    3.400000000000D+01-3.593750000000D+00 4.695552731476D-09 1.958287965800D+00
   -3.222376108170D-07 1.323347841389D-02 3.395602107048D-06 5.153751100540D+03
    1.728000000000D+05 1.881271600723D-07-6.413158811063D-01 4.097819328308D-08
    9.629342895526D-01 3.088125000000D+02-1.135252423912D+00-8.203555996750D-09
   -3.907305612105D-10 1.000000000000D+00 1.544000000000D+03 0.000000000000D+00
    2.000000000000D+00 0.000000000000D+00-3.259629011154D-09 3.400000000000D+01
    1.685580000000D+05 4.000000000000D+00
14 09  8 11  0  0  0.0-6.702588871121D-05 5.456968210638D-12 0.000000000000D+00
    8.500000000000D+01-4.628125000000D+01 3.464430021702D-09-2.825690287400D+00
   -2.304092049599D-06 4.754370776936D-03 1.040846109390D-05 5.153638130188D+03
    1.728000000000D+05 0.000000000000D+00 3.600662157574D-01 3.725290298462D-09
    9.883438336306D-01 1.916250000000D+02-2.167519500973D+00-7.513527254283D-09
   -1.885792836555D-10 1.000000000000D+00 1.544000000000D+03 0.000000000000D+00
    2.000000000000D+00 0.000000000000D+00-9.313225746155D-09 8.500000000000D+01
    1.693380000000D+05 4.000000000000D+00
20 09  8 11  0  0  0.0 7.507577538490D-05-9.094947017729D-13 0.000000000000D+00
    3.000000000000D+01 9.187500000000D+00 5.339150968497D-09-8.091298808787D-01
    3.967434167862D-07 3.843972110189D-03 3.432855010033D-06 5.153791532516D+03
    1.728000000000D+05-9.499490261078D-08-7.524536871278D-01 6.332993507385D-08
    9.408523984160D-01 3.002187500000D+02 1.340125185890D+00-8.736792493905D-09
   -2.632252501025D-10 1.000000000000D+00 1.544000000000D+03 0.000000000000D+00
    2.000000000000D+00 0.000000000000D+00-6.519258022308D-09 3.000000000000D+01
    1.703580000000D+05 4.000000000000D+00
